CTC1_L_00267001-01
1 10000U 24892TD  26075.70032407  .00000000  00000+0  00000-0 0  9998
2 10000  95.0000   0.0000 0000000   0.0000   0.0000 15.38683946    11
CTC1_L_00267001-02
1 10001U 26687VJ  26075.70032407  .00000000  00000+0  00000-0 0  9993
2 10001  95.0000   0.0000 0000000   0.0000  90.0000 15.38683946    11
CTC1_L_00267001-03
1 10002U 22706KB  26075.70032407  .00000000  00000+0  00000-0 0  9992
2 10002  95.0000   0.0000 0000000   0.0000 180.0000 15.38683946    12
CTC1_L_00267001-04
1 10003U 26096KL  26075.70032407  .00000000  00000+0  00000-0 0  9999
2 10003  95.0000   0.0000 0000000   0.0000 270.0000 15.38683946    13
CTC1_L_00267002-01
1 10004U 26474XD  26075.70032407  .00000000  00000+0  00000-0 0  9990
2 10004  95.0000  12.0000 0000000   0.0000  12.0000 15.38683946    11
CTC1_L_00267002-02
1 10005U 26674RJ  26075.70032407  .00000000  00000+0  00000-0 0  9993
2 10005  95.0000  12.0000 0000000   0.0000 102.0000 15.38683946    12
CTC1_L_00267002-03
1 10006U 24129JP  26075.70032407  .00000000  00000+0  00000-0 0  9997
2 10006  95.0000  12.0000 0000000   0.0000 192.0000 15.38683946    12
CTC1_L_00267002-04
1 10007U 23776EY  26075.70032407  .00000000  00000+0  00000-0 0  9995
2 10007  95.0000  12.0000 0000000   0.0000 282.0000 15.38683946    13
CTC1_L_00267003-01
1 10008U 26620TH  26075.70032407  .00000000  00000+0  00000-0 0  9997
2 10008  95.0000  24.0000 0000000   0.0000  24.0000 15.38683946    11
CTC1_L_00267003-02
1 10009U 24015BO  26075.70032407  .00000000  00000+0  00000-0 0  9994
2 10009  95.0000  24.0000 0000000   0.0000 114.0000 15.38683946    12
CTC1_L_00267003-03
1 10010U 23762RU  26075.70032407  .00000000  00000+0  00000-0 0  9994
2 10010  95.0000  24.0000 0000000   0.0000 204.0000 15.38683946    14
CTC1_L_00267003-04
1 10011U 24666WO  26075.70032407  .00000000  00000+0  00000-0 0  9999
2 10011  95.0000  24.0000 0000000   0.0000 294.0000 15.38683946    14
CTC1_L_00267004-01
1 10012U 23002YT  26075.70032407  .00000000  00000+0  00000-0 0  9993
2 10012  95.0000  36.0000 0000000   0.0000  36.0000 15.38683946    12
CTC1_L_00267004-02
1 10013U 23542EH  26075.70032407  .00000000  00000+0  00000-0 0  9993
2 10013  95.0000  36.0000 0000000   0.0000 126.0000 15.38683946    13
CTC1_L_00267004-03
1 10014U 23841DX  26075.70032407  .00000000  00000+0  00000-0 0  9996
2 10014  95.0000  36.0000 0000000   0.0000 216.0000 15.38683946    14
CTC1_L_00267004-04
1 10015U 26141SS  26075.70032407  .00000000  00000+0  00000-0 0  9993
2 10015  95.0000  36.0000 0000000   0.0000 306.0000 15.38683946    15
CTC1_L_00267005-01
1 10016U 26369HN  26075.70032407  .00000000  00000+0  00000-0 0  9996
2 10016  95.0000  48.0000 0000000   0.0000  48.0000 15.38683946    12
CTC1_L_00267005-02
1 10017U 26365WY  26075.70032407  .00000000  00000+0  00000-0 0  9993
2 10017  95.0000  48.0000 0000000   0.0000 138.0000 15.38683946    13
CTC1_L_00267005-03
1 10018U 24064CZ  26075.70032407  .00000000  00000+0  00000-0 0  9998
2 10018  95.0000  48.0000 0000000   0.0000 228.0000 15.38683946    14
CTC1_L_00267005-04
1 10019U 23703VZ  26075.70032407  .00000000  00000+0  00000-0 0  9998
2 10019  95.0000  48.0000 0000000   0.0000 318.0000 15.38683946    15
CTC1_L_00267006-01
1 10020U 23806OF  26075.70032407  .00000000  00000+0  00000-0 0  9994
2 10020  95.0000  60.0000 0000000   0.0000  60.0000 15.38683946    15
CTC1_L_00267006-02
1 10021U 22875AX  26075.70032407  .00000000  00000+0  00000-0 0  9990
2 10021  95.0000  60.0000 0000000   0.0000 150.0000 15.38683946    16
CTC1_L_00267006-03
1 10022U 25737TG  26075.70032407  .00000000  00000+0  00000-0 0  9991
2 10022  95.0000  60.0000 0000000   0.0000 240.0000 15.38683946    17
CTC1_L_00267006-04
1 10023U 25279Z   26075.70032407  .00000000  00000+0  00000-0 0  9993
2 10023  95.0000  60.0000 0000000   0.0000 330.0000 15.38683946    18
CTC1_L_00267007-01
1 10024U 23879HB  26075.70032407  .00000000  00000+0  00000-0 0  9998
2 10024  95.0000  72.0000 0000000   0.0000  72.0000 15.38683946    15
CTC1_L_00267007-02
1 10025U 23021AK  26075.70032407  .00000000  00000+0  00000-0 0  9998
2 10025  95.0000  72.0000 0000000   0.0000 162.0000 15.38683946    16
CTC1_L_00267007-03
1 10026U 25027QU  26075.70032407  .00000000  00000+0  00000-0 0  9997
2 10026  95.0000  72.0000 0000000   0.0000 252.0000 15.38683946    17
CTC1_L_00267007-04
1 10027U 26597OY  26075.70032407  .00000000  00000+0  00000-0 0  9991
2 10027  95.0000  72.0000 0000000   0.0000 342.0000 15.38683946    18
CTC1_L_00267008-01
1 10028U 25334LP  26075.70032407  .00000000  00000+0  00000-0 0  9990
2 10028  95.0000  84.0000 0000000   0.0000  84.0000 15.38683946    15
CTC1_L_00267008-02
1 10029U 24143PT  26075.70032407  .00000000  00000+0  00000-0 0  9998
2 10029  95.0000  84.0000 0000000   0.0000 174.0000 15.38683946    16
CTC1_L_00267008-03
1 10030U 24473FV  26075.70032407  .00000000  00000+0  00000-0 0  9996
2 10030  95.0000  84.0000 0000000   0.0000 264.0000 15.38683946    18
CTC1_L_00267008-04
1 10031U 24534N   26075.70032407  .00000000  00000+0  00000-0 0  9995
2 10031  95.0000  84.0000 0000000   0.0000 354.0000 15.38683946    19
CTC1_L_00267009-01
1 10032U 23859NB  26075.70032407  .00000000  00000+0  00000-0 0  9995
2 10032  95.0000  96.0000 0000000   0.0000  96.0000 15.38683946    16
CTC1_L_00267009-02
1 10033U 24540MI  26075.70032407  .00000000  00000+0  00000-0 0  9994
2 10033  95.0000  96.0000 0000000   0.0000 186.0000 15.38683946    17
CTC1_L_00267009-03
1 10034U 26080XO  26075.70032407  .00000000  00000+0  00000-0 0  9996
2 10034  95.0000  96.0000 0000000   0.0000 276.0000 15.38683946    18
CTC1_L_00267009-04
1 10035U 22795HC  26075.70032407  .00000000  00000+0  00000-0 0  9996
2 10035  95.0000  96.0000 0000000   0.0000   6.0000 15.38683946    10
CTC1_L_00267010-01
1 10036U 22451JV  26075.70032407  .00000000  00000+0  00000-0 0  9996
2 10036  95.0000 108.0000 0000000   0.0000 108.0000 15.38683946    18
CTC1_L_00267010-02
1 10037U 23947BK  26075.70032407  .00000000  00000+0  00000-0 0  9998
2 10037  95.0000 108.0000 0000000   0.0000 198.0000 15.38683946    18
CTC1_L_00267010-03
1 10038U 23692DU  26075.70032407  .00000000  00000+0  00000-0 0  9996
2 10038  95.0000 108.0000 0000000   0.0000 288.0000 15.38683946    19
CTC1_L_00267010-04
1 10039U 22406QE  26075.70032407  .00000000  00000+0  00000-0 0  9999
2 10039  95.0000 108.0000 0000000   0.0000  18.0000 15.38683946    11
CTC1_L_00267011-01
1 10040U 26377NX  26075.70032407  .00000000  00000+0  00000-0 0  9992
2 10040  95.0000 120.0000 0000000   0.0000 120.0000 15.38683946    11
CTC1_L_00267011-02
1 10041U 26933NO  26075.70032407  .00000000  00000+0  00000-0 0  9991
2 10041  95.0000 120.0000 0000000   0.0000 210.0000 15.38683946    12
CTC1_L_00267011-03
1 10042U 25916II  26075.70032407  .00000000  00000+0  00000-0 0  9992
2 10042  95.0000 120.0000 0000000   0.0000 300.0000 15.38683946    13
CTC1_L_00267011-04
1 10043U 24611Y   26075.70032407  .00000000  00000+0  00000-0 0  9994
2 10043  95.0000 120.0000 0000000   0.0000  30.0000 15.38683946    14
CTC1_L_00267012-01
1 10044U 23331SS  26075.70032407  .00000000  00000+0  00000-0 0  9993
2 10044  95.0000 132.0000 0000000   0.0000 132.0000 15.38683946    11
CTC1_L_00267012-02
1 10045U 25361QN  26075.70032407  .00000000  00000+0  00000-0 0  9999
2 10045  95.0000 132.0000 0000000   0.0000 222.0000 15.38683946    12
CTC1_L_00267012-03
1 10046U 23574VQ  26075.70032407  .00000000  00000+0  00000-0 0  9994
2 10046  95.0000 132.0000 0000000   0.0000 312.0000 15.38683946    13
CTC1_L_00267012-04
1 10047U 24180WT  26075.70032407  .00000000  00000+0  00000-0 0  9999
2 10047  95.0000 132.0000 0000000   0.0000  42.0000 15.38683946    14
CTC1_L_00267013-01
1 10048U 26504YB  26075.70032407  .00000000  00000+0  00000-0 0  9992
2 10048  95.0000 144.0000 0000000   0.0000 144.0000 15.38683946    11
CTC1_L_00267013-02
1 10049U 24059CV  26075.70032407  .00000000  00000+0  00000-0 0  9996
2 10049  95.0000 144.0000 0000000   0.0000 234.0000 15.38683946    12
CTC1_L_00267013-03
1 10050U 25708EF  26075.70032407  .00000000  00000+0  00000-0 0  9990
2 10050  95.0000 144.0000 0000000   0.0000 324.0000 15.38683946    14
CTC1_L_00267013-04
1 10051U 23451FS  26075.70032407  .00000000  00000+0  00000-0 0  9994
2 10051  95.0000 144.0000 0000000   0.0000  54.0000 15.38683946    15
CTC1_L_00267014-01
1 10052U 23497MA  26075.70032407  .00000000  00000+0  00000-0 0  9995
2 10052  95.0000 156.0000 0000000   0.0000 156.0000 15.38683946    12
CTC1_L_00267014-02
1 10053U 24106CN  26075.70032407  .00000000  00000+0  00000-0 0  9994
2 10053  95.0000 156.0000 0000000   0.0000 246.0000 15.38683946    13
CTC1_L_00267014-03
1 10054U 23438KI  26075.70032407  .00000000  00000+0  00000-0 0  9992
2 10054  95.0000 156.0000 0000000   0.0000 336.0000 15.38683946    14
CTC1_L_00267014-04
1 10055U 23831BM  26075.70032407  .00000000  00000+0  00000-0 0  9990
2 10055  95.0000 156.0000 0000000   0.0000  66.0000 15.38683946    15
CTC1_L_00267015-01
1 10056U 23212EI  26075.70032407  .00000000  00000+0  00000-0 0  9994
2 10056  95.0000 168.0000 0000000   0.0000 168.0000 15.38683946    12
CTC1_L_00267015-02
1 10057U 24451DV  26075.70032407  .00000000  00000+0  00000-0 0  9991
2 10057  95.0000 168.0000 0000000   0.0000 258.0000 15.38683946    13
CTC1_L_00267015-03
1 10058U 24823ZP  26075.70032407  .00000000  00000+0  00000-0 0  9995
2 10058  95.0000 168.0000 0000000   0.0000 348.0000 15.38683946    14
CTC1_L_00267015-04
1 10059U 25973IB  26075.70032407  .00000000  00000+0  00000-0 0  9993
2 10059  95.0000 168.0000 0000000   0.0000  78.0000 15.38683946    15
CTC1_L_00267016-01
1 10060U 25309ZN  26075.70032407  .00000000  00000+0  00000-0 0  9998
2 10060  95.0000 180.0000 0000000   0.0000 180.0000 15.38683946    15
CTC1_L_00267016-02
1 10061U 25200CG  26075.70032407  .00000000  00000+0  00000-0 0  9999
2 10061  95.0000 180.0000 0000000   0.0000 270.0000 15.38683946    16
